[{"OBJECT_NAME":"CALSPHERE 1","OBJECT_ID":"1964-063C","EPOCH":"2026-03-06T07:13:31.632384","MEAN_MOTION":13.76492783,"ECCENTRICITY":0.00235665,"INCLINATION":90.2157,"RA_OF_ASC_NODE":69.3731,"ARG_OF_PERICENTER":241.8135,"MEAN_ANOMALY":129.8413,"EPHEMERIS_TYPE":0,"CLASSIFICATION_TYPE":"U","NORAD_CAT_ID":900,"ELEMENT_SET_NO":999,"REV_AT_EPOCH":5727,"BSTAR":0.00081416267,"MEAN_MOTION_DOT":8.07e-6,"MEAN_MOTION_DDOT":0},{"OBJECT_NAME":"CALSPHERE 2","OBJECT_ID":"1964-063E","EPOCH":"2026-03-06T07:02:02.713344","MEAN_MOTION":13.52891503,"ECCENTRICITY":0.00191651,"INCLINATION":90.2281,"RA_OF_ASC_NODE":73.356,"ARG_OF_PERICENTER":160.3788,"MEAN_ANOMALY":221.0176,"EPHEMERIS_TYPE":0,"CLASSIFICATION_TYPE":"U","NORAD_CAT_ID":902,"ELEMENT_SET_NO":999,"REV_AT_EPOCH":84235,"BSTAR":2.9076541e-5,"MEAN_MOTION_DOT":2.8e-7,"MEAN_MOTION_DDOT":0},{"OBJECT_NAME":"LCS 1","OBJECT_ID":"1965-034C","EPOCH":"2026-03-06T06:36:32.953824","MEAN_MOTION":9.89309906,"ECCENTRICITY":0.00131902,"INCLINATION":32.1429,"RA_OF_ASC_NODE":61.3667,"ARG_OF_PERICENTER":117.7607,"MEAN_ANOMALY":242.4229,"EPHEMERIS_TYPE":0,"CLASSIFICATION_TYPE":"U","NORAD_CAT_ID":1361,"ELEMENT_SET_NO":999,"REV_AT_EPOCH":19969,"BSTAR":-0.00064499536,"MEAN_MOTION_DOT":3.0e-8,"MEAN_MOTION_DDOT":0},{"OBJECT_NAME":"TEMPSAT 1","OBJECT_ID":"1965-065E","EPOCH":"2026-03-06T08:09:18.040896","MEAN_MOTION":13.33588975,"ECCENTRICITY":0.0069923,"INCLINATION":89.993,"RA_OF_ASC_NODE":212.588,"ARG_OF_PERICENTER":176.0354,"MEAN_ANOMALY":211.2387,"EPHEMERIS_TYPE":0,"CLASSIFICATION_TYPE":"U","NORAD_CAT_ID":1512,"ELEMENT_SET_NO":999,"REV_AT_EPOCH":94634,"BSTAR":6.0765372e-5,"MEAN_MOTION_DOT":4.0e-7,"MEAN_MOTION_DDOT":0},{"OBJECT_NAME":"CALSPHERE 4A","OBJECT_ID":"1965-065H","EPOCH":"2026-03-06T04:36:09.635616","MEAN_MOTION":13.36258528,"ECCENTRICITY":0.00705599,"INCLINATION":89.9038,"RA_OF_ASC_NODE":123.5042,"ARG_OF_PERICENTER":35.9969,"MEAN_ANOMALY":30.0209,"EPHEMERIS_TYPE":0,"CLASSIFICATION_TYPE":"U","NORAD_CAT_ID":1520,"ELEMENT_SET_NO":999,"REV_AT_EPOCH":94895,"BSTAR":0.00024231506,"MEAN_MOTION_DOT":1.36e-6,"MEAN_MOTION_DDOT":0},{"OBJECT_NAME":"OPS 5712 (P/L 160)","OBJECT_ID":"1967-053A","EPOCH":"2026-03-06T04:11:24.982944","MEAN_MOTION":14.76111475,"ECCENTRICITY":0.00043923,"INCLINATION":69.9167,"RA_OF_ASC_NODE":290.4855,"ARG_OF_PERICENTER":226.6953,"MEAN_ANOMALY":133.3828,"EPHEMERIS_TYPE":0,"CLASSIFICATION_TYPE":"U","NORAD_CAT_ID":2826,"ELEMENT_SET_NO":999,"REV_AT_EPOCH":5102,"BSTAR":0.0012515945,"MEAN_MOTION_DOT":8.588e-5,"MEAN_MOTION_DDOT":0},{"OBJECT_NAME":"OPS 5712 (P/L 153)","OBJECT_ID":"1967-053H","EPOCH":"2026-03-06T03:34:03.342720","MEAN_MOTION":13.96810943,"ECCENTRICITY":0.00090632,"INCLINATION":69.9764,"RA_OF_ASC_NODE":336.1599,"ARG_OF_PERICENTER":313.5023,"MEAN_ANOMALY":46.5328,"EPHEMERIS_TYPE":0,"CLASSIFICATION_TYPE":"U","NORAD_CAT_ID":2874,"ELEMENT_SET_NO":999,"REV_AT_EPOCH":99239,"BSTAR":7.99134e-5,"MEAN_MOTION_DOT":5.8e-7,"MEAN_MOTION_DDOT":0},{"OBJECT_NAME":"RIGIDSPHERE 2 (LCS 4)","OBJECT_ID":"1971-067E","EPOCH":"2026-03-06T06:15:40.711104","MEAN_MOTION":14.37736079,"ECCENTRICITY":0.00584423,"INCLINATION":87.6272,"RA_OF_ASC_NODE":7.3601,"ARG_OF_PERICENTER":212.6609,"MEAN_ANOMALY":147.0971,"EPHEMERIS_TYPE":0,"CLASSIFICATION_TYPE":"U","NORAD_CAT_ID":5398,"ELEMENT_SET_NO":999,"REV_AT_EPOCH":85909,"BSTAR":0.00033921672,"MEAN_MOTION_DOT":1.058e-5,"MEAN_MOTION_DDOT":0},{"OBJECT_NAME":"COSMOS 2493 (SKRL-756 1)","OBJECT_ID":"2013-078A","EPOCH":"2026-03-06T06:46:55.873632","MEAN_MOTION":15.01544243,"ECCENTRICITY":0.00114535,"INCLINATION":82.4164,"RA_OF_ASC_NODE":1.819,"ARG_OF_PERICENTER":227.7002,"MEAN_ANOMALY":132.3253,"EPHEMERIS_TYPE":0,"CLASSIFICATION_TYPE":"U","NORAD_CAT_ID":39490,"ELEMENT_SET_NO":999,"REV_AT_EPOCH":66251,"BSTAR":0.0003775317,"MEAN_MOTION_DOT":4.919e-5,"MEAN_MOTION_DDOT":0},{"OBJECT_NAME":"COSMOS 2494 (SKRL-756 2)","OBJECT_ID":"2013-078B","EPOCH":"2026-03-06T06:19:03.053856","MEAN_MOTION":15.04170204,"ECCENTRICITY":0.00155352,"INCLINATION":82.416,"RA_OF_ASC_NODE":351.6548,"ARG_OF_PERICENTER":188.4576,"MEAN_ANOMALY":171.6391,"EPHEMERIS_TYPE":0,"CLASSIFICATION_TYPE":"U","NORAD_CAT_ID":39491,"ELEMENT_SET_NO":999,"REV_AT_EPOCH":66333,"BSTAR":0.00040678392,"MEAN_MOTION_DOT":5.685e-5,"MEAN_MOTION_DDOT":0}]
