CALSPHERE 1             
1 00900U 64063C   26065.30106056  .00000807  00000+0  81416-3 0  9995
2 00900  90.2157  69.3731 0023566 241.8135 129.8413 13.76492783 57279
CALSPHERE 2             
1 00902U 64063E   26065.29308696  .00000028  00000+0  29077-4 0  9990
2 00902  90.2281  73.3560 0019165 160.3788 221.0176 13.52891503842352
LCS 1                   
1 01361U 65034C   26065.27538141  .00000003  00000+0 -64500-3 0  9990
2 01361  32.1429  61.3667 0013190 117.7607 242.4229  9.89309906199698
TEMPSAT 1               
1 01512U 65065E   26065.33979214  .00000040  00000+0  60765-4 0  9999
2 01512  89.9930 212.5880 0069923 176.0354 211.2387 13.33588975946342
CALSPHERE 4A            
1 01520U 65065H   26065.19177819  .00000136  00000+0  24232-3 0  9997
2 01520  89.9038 123.5042 0070559  35.9969  30.0209 13.36258528948953
OPS 5712 (P/L 160)      
1 02826U 67053A   26065.17459471  .00008588  00000+0  12516-2 0  9991
2 02826  69.9167 290.4855 0004392 226.6953 133.3828 14.76111475 51025
OPS 5712 (P/L 153)      
1 02874U 67053H   26065.14864980  .00000058  00000+0  79913-4 0  9996
2 02874  69.9764 336.1599 0009063 313.5023  46.5328 13.96810943992399
RIGIDSPHERE 2 (LCS 4)   
1 05398U 71067E   26065.26088786  .00001058  00000+0  33922-3 0  9995
2 05398  87.6272   7.3601 0058442 212.6609 147.0971 14.37736079859092
COSMOS 2493 (SKRL-756 1)
1 39490U 13078A   26065.28259113  .00004919  00000+0  37753-3 0  9994
2 39490  82.4164   1.8190 0011453 227.7002 132.3253 15.01544243662513
COSMOS 2494 (SKRL-756 2)
1 39491U 13078B   26065.26322979  .00005685  00000+0  40678-3 0  9995
2 39491  82.4160 351.6548 0015535 188.4576 171.6391 15.04170204663332
